[{"OBJECT_NAME":"STARLINK-5485","OBJECT_ID":"2023-094AV","EPOCH":"2026-03-09T22:00:01.999584","MEAN_MOTION":15.14639465,"ECCENTRICITY":0.00016836,"INCLINATION":43.001,"RA_OF_ASC_NODE":28.4084,"ARG_OF_PERICENTER":253.972,"MEAN_ANOMALY":53.3121,"EPHEMERIS_TYPE":0,"CLASSIFICATION_TYPE":"U","NORAD_CAT_ID":57261,"ELEMENT_SET_NO":999,"REV_AT_EPOCH":577,"BSTAR":0.0044032265,"MEAN_MOTION_DOT":0.000836,"MEAN_MOTION_DDOT":0},{"OBJECT_NAME":"OBJECT B","OBJECT_ID":"2025-234B","EPOCH":"2026-03-09T22:59:30.120864","MEAN_MOTION":15.19966812,"ECCENTRICITY":0.00128166,"INCLINATION":97.4853,"RA_OF_ASC_NODE":138.9577,"ARG_OF_PERICENTER":83.221,"MEAN_ANOMALY":277.0483,"EPHEMERIS_TYPE":0,"CLASSIFICATION_TYPE":"U","NORAD_CAT_ID":66054,"ELEMENT_SET_NO":999,"REV_AT_EPOCH":2156,"BSTAR":0.0003176198,"MEAN_MOTION_DOT":6.781e-5,"MEAN_MOTION_DDOT":0}]
